[{"OBJECT_NAME":"CORVUS BC1","OBJECT_ID":"2017-042Y","EPOCH":"2026-03-09T22:24:00.973440","MEAN_MOTION":15.05817893,"ECCENTRICITY":0.00132832,"INCLINATION":97.3986,"RA_OF_ASC_NODE":234.9925,"ARG_OF_PERICENTER":71.1953,"MEAN_ANOMALY":289.0714,"EPHEMERIS_TYPE":0,"CLASSIFICATION_TYPE":"U","NORAD_CAT_ID":42847,"ELEMENT_SET_NO":999,"REV_AT_EPOCH":47215,"BSTAR":0.00033801202,"MEAN_MOTION_DOT":4.853e-5,"MEAN_MOTION_DDOT":0},{"OBJECT_NAME":"THOR ABLE DEB [YO]","OBJECT_ID":"1960-002D","EPOCH":"2026-03-09T10:49:33.639456","MEAN_MOTION":14.97533438,"ECCENTRICITY":0.00268025,"INCLINATION":48.1611,"RA_OF_ASC_NODE":231.3365,"ARG_OF_PERICENTER":170.582,"MEAN_ANOMALY":189.5606,"EPHEMERIS_TYPE":0,"CLASSIFICATION_TYPE":"U","NORAD_CAT_ID":115,"ELEMENT_SET_NO":999,"REV_AT_EPOCH":50318,"BSTAR":0.00053607823,"MEAN_MOTION_DOT":6.13e-5,"MEAN_MOTION_DDOT":0}]
